STARLINK-2179           
1 47761U 21017AR  24300.71308859  .00002879  00000+0  21210-3 0  9990
2 47761  53.0541 291.6072 0002059  90.7044 269.4181 15.06406459201893
STARLINK-2180           
1 47762U 21017AS  24300.40761048  .00001618  00000+0  12760-3 0  9990
2 47762  53.0528 307.9894 0001772  82.3184 277.8006 15.06372509202286
STARLINK-2181           
1 47763U 21017AT  24300.68865626  .00005228  00000+0  36951-3 0  9997
2 47763  53.0547 296.7184 0001554 107.9597 252.1561 15.06409240201818
STARLINK-2182           
1 47764U 21017AU  24300.32651513  .00009432  00000+0  65109-3 0  9995
2 47764  53.0550 308.3465 0001675  76.4766 283.6410 15.06407235202306
STARLINK-2184           
1 47766U 21017AW  24300.41035081  .00010806  00000+0  74365-3 0  9994
2 47766  53.0538 307.9591 0001466  94.4329 265.6827 15.06377575202251
STARLINK-2185           
1 47767U 21017AX  24300.70204178  .00010559  00000+0  72689-3 0  9994
2 47767  53.0533 291.6582 0001704  78.5716 281.5465 15.06388770201897
STARLINK-2189           
1 47768U 21017AY  24300.74307878  .00001095  00000+0  92439-4 0  9991
2 47768  53.0522 306.8759 0001530  98.3026 261.8137 15.06395703201680
STARLINK-2192           
1 47769U 21017AZ  24300.34908698  .00006892  00000+0  48138-3 0  9991
2 47769  53.0541 273.1944 0001656 110.6209 249.4958 15.06378296202798
STARLINK-2193           
1 47770U 21017BA  24300.36155836  .00007015  00000+0  48950-3 0  9993
2 47770  53.0539 288.1842 0001798  81.0610 279.0583 15.06391815202564
STARLINK-2194           
1 47771U 21017BB  24300.23989858  .00009230  00000+0  63764-3 0  9990
2 47771  53.0531 288.7323 0001274  74.8785 285.2345 15.06406387202554
STARLINK-2195           
1 47772U 21017BC  24300.42836601  .00008587  00000+0  59477-3 0  9999
2 47772  53.0545 302.8876 0002028  83.4136 276.7084 15.06395375202341
STARLINK-2196           
1 47773U 21017BD  24300.42465704  .00010478  00000+0  72105-3 0  9997
2 47773  53.0548 302.9056 0001697  81.8528 278.2653 15.06410883202334
STARLINK-2197           
1 47774U 21017BE  24300.91668981  .00576077  00000+0  34019-1 0  9996
2 47774  53.0534 300.6735 0001390  92.0624  89.6490 15.08972456201782
STARLINK-2198           
1 47775U 21017BF  24300.83334491  .00517407  00000+0  18197-1 0  9995
2 47775  53.0521 299.2677 0001518  77.1374 148.1190 15.26934465201804
STARLINK-2209           
1 47776U 21017BG  24300.39242826  .00016059  00000+0  10943-2 0  9996
2 47776  53.0532 293.0513 0001528  98.4249 261.6913 15.06407117202493
STARLINK-2210           
1 47777U 21017BH  24300.26340954 -.00019540  00000+0 -12987-2 0  9994
2 47777  53.0540 293.6279 0001236  95.1060 265.0070 15.06337064202472
STARLINK-2211           
1 47778U 21017BJ  24300.42927562  .00012833  00000+0  87875-3 0  9994
2 47778  53.0539 292.8843 0001676 103.6196 256.4979 15.06404753202496
STARLINK-2213           
1 47780U 21017BL  24300.72046048  .00009005  00000+0  62293-3 0  9995
2 47780  53.0535 291.5685 0001758 115.7770 244.3401 15.06383721201900
STARLINK-2223           
1 47781U 21017BM  24300.28919093  .00014774  00000+0  10080-2 0  9991
2 47781  53.0543 293.5114 0001717  93.7886 266.3299 15.06423735202468
STARLINK-2257           
1 47787U 21018A   24300.37397441  .00021554  00000+0  14606-2 0  9997
2 47787  53.0548 333.1318 0001699  71.5571 288.5603 15.06421770201337
STARLINK-2314           
1 47788U 21018B   24300.31913994  .00009537  00000+0  65811-3 0  9991
2 47788  53.0545 308.3791 0001488 101.9211 258.1945 15.06411156201697
STARLINK-2315           
1 47789U 21018C   24300.76651278  .00009112  00000+0  62937-3 0  9990
2 47789  53.0544 311.3653 0001583 100.6554 259.4613 15.06424966201341
STARLINK-2319           
1 47790U 21018D   24300.74164666 -.00002535  00000+0 -15137-3 0  9994
2 47790  53.0541 301.4775 0001447 106.7873 253.3274 15.06391811201477
STARLINK-2322           
1 47791U 21018E   24300.82735454 -.00000012  00000+0  18072-4 0  9992
2 47791  53.0560 331.0941 0001187 115.1668 244.9444 15.06395151201061
STARLINK-2334           
1 47792U 21018F   24300.77390876 -.00001335  00000+0 -70750-4 0  9993
2 47792  53.0546 311.3382 0001585 103.3213 256.7953 15.06392860201333
STARLINK-2338           
1 47793U 21018G   24300.32423231  .00017157  00000+0  11680-2 0  9999
2 47793  53.0548 313.3543 0001617  79.0080 281.1090 15.06397309201601
STARLINK-2347           
1 47795U 21018J   24300.31684757  .00008196  00000+0  56845-3 0  9998
2 47795  53.0533 313.3857 0001454  79.5538 280.5615 15.06402478201663
STARLINK-2373           
1 47796U 21018K   24300.33160375  .00011242  00000+0  77252-3 0  9997
2 47796  53.0546 313.3266 0001532 101.0516 259.0645 15.06394574201612
STARLINK-2377           
1 47797U 21018L   24300.36799404  .00002771  00000+0  20481-3 0  9991
2 47797  53.0546 338.1631 0001514  92.2549 267.8613 15.06406390201264
STARLINK-2379           
1 47798U 21018M   24300.74072323  .00005195  00000+0  36723-3 0  9997
2 47798  53.0538 311.4866 0001255  81.1261 278.9870 15.06414261201321
STARLINK-2380           
1 47799U 21018N   24300.33895805  .00005288  00000+0  37345-3 0  9995
2 47799  53.0540 313.2905 0001564  90.7378 269.3790 15.06419344201600
STARLINK-2381           
1 47800U 21018P   24300.36109556  .00003343  00000+0  24333-3 0  9995
2 47800  53.0540 313.1903 0001490  72.1820 287.9331 15.06386444201616
STARLINK-2383           
1 47802U 21018R   24300.83979716  .00016583  00000+0  11288-2 0  9996
2 47802  53.0551 336.0397 0001711  84.6605 275.4580 15.06424993200996
STARLINK-2384           
1 47803U 21018S   24300.77021499  .00007931  00000+0  55066-3 0  9996
2 47803  53.0547 311.3511 0001336  93.2058 266.9084 15.06403604201336
STARLINK-2385           
1 47804U 21018T   24300.32052649  .00013047  00000+0  89277-3 0  9995
2 47804  53.0548 313.3744 0001537  76.1577 283.9583 15.06416401201609
STARLINK-2386           
1 47805U 21018U   24300.48642818  .00000045  00000+0  21930-4 0  9993
2 47805  53.0543 312.8670 0001645 100.4143 259.7031 15.06396200201284
STARLINK-2387           
1 47806U 21018V   24300.49053976  .00017991  00000+0  12228-2 0  9992
2 47806  53.0549 327.6164 0001559  70.7874 289.3284 15.06424934201484
STARLINK-2388           
1 47807U 21018W   24300.28092765  .00004820  00000+0  34229-3 0  9992
2 47807  53.0551 303.5466 0001531  88.4574 271.6590 15.06399780201731
STARLINK-2389           
1 47808U 21018X   24300.37630222  .00003874  00000+0  27885-3 0  9997
2 47808  53.0548 328.1224 0001643 104.4000 255.7171 15.06400814201469
STARLINK-2391           
1 47810U 21018Z   24300.53892707  .00009735  00000+0  67122-3 0  9996
2 47810  53.0546 342.3924 0001509  89.9017 270.2145 15.06415941201270
STARLINK-2392           
1 47811U 21018AA  24300.31316183  .00008075  00000+0  56033-3 0  9997
2 47811  53.0544 313.4050 0001609  85.8232 274.2941 15.06401694201664
STARLINK-2393           
1 47812U 21018AB  24300.81539850 -.00011131  00000+0 -73026-3 0  9991
2 47812  53.0555 341.1497 0003333  97.5874 262.5494 15.06356059200912
STARLINK-2395           
1 47814U 21018AD  24300.49193458  .00024055  00000+0  16289-2 0  9991
2 47814  53.0545 332.6025 0001566  89.9361 270.1807 15.06386633201024
STARLINK-2396           
1 47815U 21018AE  24300.45734503  .00023505  00000+0  15885-2 0  9990
2 47815  53.0540 327.7485 0001711 103.6122 256.5058 15.06472508201412
STARLINK-2399           
1 47816U 21018AF  24300.39978160  .00005473  00000+0  38611-3 0  9990
2 47816  53.0551 333.0177 0001495  96.8991 263.2168 15.06392734201339
STARLINK-2400           
1 47817U 21018AG  24300.81628839  .00008970  00000+0  62019-3 0  9997
2 47817  53.0546 331.1463 0002105  99.4561 260.6666 15.06406622201068
STARLINK-2401           
1 47818U 21018AH  24300.48968989  .00000595  00000+0  58843-4 0  9990
2 47818  53.0556 338.0726 0001748  90.0632 270.0558 15.06398496201273
STARLINK-2402           
1 47819U 21018AJ  24300.81903759  .00002192  00000+0  16600-3 0  9991
2 47819  53.0540 331.1285 0001535  93.7287 266.3878 15.06399442201074
STARLINK-2403           
1 47820U 21018AK  24300.53523893  .00010785  00000+0  74134-3 0  9992
2 47820  53.0542 342.4078 0001564  97.3071 262.8096 15.06424009201279
STARLINK-2406           
1 47821U 21018AL  24300.77943728  .00001581  00000+0  12503-3 0  9998
2 47821  53.0547 331.3187 0001532  83.2576 276.8587 15.06404098201065
STARLINK-2407           
1 47822U 21018AM  24300.45689242  .00012804  00000+0  87645-3 0  9991
2 47822  53.0544 342.7488 0001540  96.9192 263.1973 15.06419604201211
STARLINK-2408           
1 47823U 21018AN  24300.53888672  .00014108  00000+0  96312-3 0  9999
2 47823  53.0542 332.3809 0001430  95.2339 264.8813 15.06439105201360
STARLINK-2409           
1 47824U 21018AP  24300.52879131  .00011186  00000+0  76821-3 0  9995
2 47824  53.0550 332.4369 0001520 100.3397 259.7763 15.06420396201352
STARLINK-2410           
1 47825U 21018AQ  24300.81260510 -.00003166  00000+0 -19375-3 0  9995
2 47825  53.0547 331.1621 0001729  94.8700 265.2486 15.06392773201061
STARLINK-2411           
1 47826U 21018AR  24300.80892739  .00005438  00000+0  38359-3 0  9994
2 47826  53.0544 331.1771 0001611  93.5240 266.5933 15.06406439201066
STARLINK-2413           
1 47827U 21018AS  24300.39336419  .00005124  00000+0  36254-3 0  9991
2 47827  53.0544 323.2876 0001482  94.4039 265.7120 15.06407984201534
STARLINK-2415           
1 47828U 21018AT  24300.39518874  .00012623  00000+0  86455-3 0  9999
2 47828  53.0551 343.0389 0001440  86.9138 273.2016 15.06410525201209
STARLINK-2416           
1 47829U 21018AU  24300.41360776  .00006359  00000+0  44528-3 0  9993
2 47829  53.0553 342.9576 0001517  89.0819 271.0344 15.06409225201196
STARLINK-2419           
1 47830U 21018AV  24300.80800547  .00003356  00000+0  24405-3 0  9999
2 47830  53.0556 341.1793 0001785  86.5355 273.5838 15.06403384200922
